GPS BIIR-08             
1 27663U 03005A   26088.08100477 -.00000039  00000+0  00000+0 0  9994
2 27663  54.9007 218.1499 0148521  52.8613 126.2596  2.00564840169704
GPS BIIR-11             
1 28190U 04009A   26087.36597193 -.00000001  00000+0  00000+0 0  9999
2 28190  54.8974 278.9506 0112157 169.7670   8.2543  2.00557238161326
GPS BIIR-13             
1 28474U 04045A   26085.30519351 -.00000073  00000+0  00000+0 0  9995
2 28474  55.1822 328.2360 0170517 313.6726 241.0281  2.00574367156760
GPS BIIR-14M            
1 28874U 05038A   26087.36787354  .00000000  00000+0  00000+0 0  9999
2 28874  54.9447 276.4371 0128190 295.6323 268.7932  2.00571249150211
METEOSAT-9 (MSG-2)      
1 28912U 05049B   26087.55372006  .00000111  00000+0  00000+0 0  9992
2 28912   9.1814  54.9434 0000189 125.5968 250.3933  1.00272852  6198
GPS BIIR-16M            
1 29601U 06052A   26087.64548781 -.00000036  00000+0  00000+0 0  9995
2 29601  54.9511 217.1971 0087291  89.8188 271.1436  2.00553221141798
GPS BIIR-17M            
1 32260U 07047A   26087.95129578  .00000025  00000+0  00000+0 0  9995
2 32260  54.0359  83.3707 0163986  86.1699 275.7270  2.00559375135208
GPS BIIR-18M            
1 32384U 07062A   26088.02562455 -.00000007  00000+0  00000+0 0  9994
2 32384  55.0963 277.3729 0033722 161.1106  20.0101  2.00555011133909
GOES 14                 
1 35491U 09033A   26088.22211098  .00000052  00000+0  00000+0 0  9991
2 35491   1.4842  84.0175 0001735 278.8459  90.5987  1.00108852  5791
GOES 15                 
1 36411U 10008A   26088.12777348  .00000004  00000+0  00000+0 0  9999
2 36411   1.0690  84.4537 0002709  19.2530 192.1222  1.00270431 58833
GSAT0101 (GALILEO-PFM)  
1 37846U 11060A   26086.31314158 -.00000097  00000+0  00000+0 0  9999
2 37846  57.0197 343.9840 0004117  13.5470 346.4977  1.70475647 89720
GSAT0102 (GALILEO-FM2)  
1 37847U 11060B   26087.70478072 -.00000099  00000+0  00000+0 0  9992
2 37847  57.0201 343.9462 0005116  21.5560 158.0911  1.70475653 89751
LUCH 5A                 
1 37951U 11074B   26087.79170778 -.00000063  00000+0  00000+0 0  9995
2 37951   8.5510  74.9754 0003232 271.7532 291.4452  1.00269816 52242
METEOSAT-10 (MSG-3)     
1 38552U 12035B   26088.18653373 -.00000022  00000+0  00000+0 0  9997
2 38552   4.4835  61.3515 0002445 285.5286 266.9163  1.00271476 50052
SARSAT 13 (METOP-B)     
1 38771U 12049A   26088.15445016  .00000121  00000+0  75061-4 0  9998
2 38771  98.6599 141.2176 0002057 189.0347 171.0794 14.21424584701891
GPS BIIF-3              
1 38833U 12053A   26086.05261588 -.00000004  00000+0  00000+0 0  9996
2 38833  53.5685 146.9649 0177237  64.9128 296.9786  2.00566077 97797
GSAT0103 (GALILEO-FM3)  
1 38857U 12055A   26086.35355997  .00000039  00000+0  00000+0 0  9992
2 38857  55.7542 103.7894 0005825 290.2864  69.7017  1.70473333 83613
